{"type": "FeatureCollection", "features": [ {"type": "Feature", "properties": {"norad_id": 35441, "name": "COSMOS 2251 DEB", "group": "cosmos-2251-debris", "lat": -38.16014026978239, "lon": 142.51873650248186, "alt_km": 665.4411050265844, "timestamp": "2025-12-06T16:45:43.117693+00:00", "meta": {"OBJECT_NAME": "COSMOS 2251 DEB", "OBJECT_ID": "1993-036AKK", "EPOCH": "2025-12-06T04:16:00.147072", "MEAN_MOTION": 14.62424677, "ECCENTRICITY": 0.00374671, "INCLINATION": 74.1332, "RA_OF_ASC_NODE": 310.5953, "ARG_OF_PERICENTER": 209.6577, "MEAN_ANOMALY": 150.2468, "EPHEMERIS_TYPE": 0, "CLASSIFICATION_TYPE": "U", "NORAD_CAT_ID": 35441, "ELEMENT_SET_NO": 999, "REV_AT_EPOCH": 87334, "BSTAR": 0.0026738741, "MEAN_MOTION_DOT": 0.00013668, "MEAN_MOTION_DDOT": 0}, "tle": {"line1": "1 35441U 93036AKK 25340.17777948  .00013668  00000+0  26739-2 0  9994", "line2": "2 35441  74.1332 310.5953 0037467 209.6577 150.2468 14.62424677873342"}}, "geometry": {"type": "Point", "coordinates": [142.51873650248186, -38.16014026978239]}}, {"type": "Feature", "properties": {"norad_id": 35442, "name": "COSMOS 2251 DEB", "group": "cosmos-2251-debris", "lat": -10.06831711911466, "lon": 108.20855612219809, "alt_km": 622.2372785072885, "timestamp": "2025-12-06T16:45:43.117703+00:00", "meta": {"OBJECT_NAME": "COSMOS 2251 DEB", "OBJECT_ID": "1993-036AKL", "EPOCH": "2025-12-06T02:14:52.645632", "MEAN_MOTION": 14.84002746, "ECCENTRICITY": 0.00042557, "INCLINATION": 74.0266, "RA_OF_ASC_NODE": 112.3227, "ARG_OF_PERICENTER": 117.6351, "MEAN_ANOMALY": 242.526, "EPHEMERIS_TYPE": 0, "CLASSIFICATION_TYPE": "U", "NORAD_CAT_ID": 35442, "ELEMENT_SET_NO": 999, "REV_AT_EPOCH": 87254, "BSTAR": 0.00438591, "MEAN_MOTION_DOT": 0.00036694, "MEAN_MOTION_DDOT": 0}, "tle": {"line1": "1 35442U 93036AKL 25340.09366488  .00036694  00000+0  43859-2 0  9995", "line2": "2 35442  74.0266 112.3227 0004255 117.6351 242.5260 14.84002746872546"}}, "geometry": {"type": "Point", "coordinates": [108.20855612219809, -10.06831711911466]}}, {"type": "Feature", "properties": {"norad_id": 35443, "name": "COSMOS 2251 DEB", "group": "cosmos-2251-debris", "lat": 55.96324950440611, "lon": 138.67465469144707, "alt_km": 522.7677150522477, "timestamp": "2025-12-06T16:45:43.117713+00:00", "meta": {"OBJECT_NAME": "COSMOS 2251 DEB", "OBJECT_ID": "1993-036AKM", "EPOCH": "2025-12-06T06:35:54.030624", "MEAN_MOTION": 14.95936925, "ECCENTRICITY": 0.00736514, "INCLINATION": 73.9854, "RA_OF_ASC_NODE": 344.6974, "ARG_OF_PERICENTER": 128.494, "MEAN_ANOMALY": 232.2881, "EPHEMERIS_TYPE": 0, "CLASSIFICATION_TYPE": "U", "NORAD_CAT_ID": 35443, "ELEMENT_SET_NO": 999, "REV_AT_EPOCH": 86781, "BSTAR": 0.0060867495, "MEAN_MOTION_DOT": 0.0007268, "MEAN_MOTION_DDOT": 0}, "tle": {"line1": "1 35443U 93036AKM 25340.27493091  .00072680  00000+0  60867-2 0  9990", "line2": "2 35443  73.9854 344.6974 0073651 128.4940 232.2881 14.95936925867813"}}, "geometry": {"type": "Point", "coordinates": [138.67465469144707, 55.96324950440611]}}, {"type": "Feature", "properties": {"norad_id": 35445, "name": "COSMOS 2251 DEB", "group": "cosmos-2251-debris", "lat": -59.63967006037241, "lon": 160.77165839570702, "alt_km": 796.0405946371011, "timestamp": "2025-12-06T16:45:43.117724+00:00", "meta": {"OBJECT_NAME": "COSMOS 2251 DEB", "OBJECT_ID": "1993-036AKP", "EPOCH": "2025-12-06T07:25:17.154912", "MEAN_MOTION": 14.58941394, "ECCENTRICITY": 0.01435699, "INCLINATION": 74.0371, "RA_OF_ASC_NODE": 312.2612, "ARG_OF_PERICENTER": 40.8351, "MEAN_ANOMALY": 320.3464, "EPHEMERIS_TYPE": 0, "CLASSIFICATION_TYPE": "U", "NORAD_CAT_ID": 35445, "ELEMENT_SET_NO": 999, "REV_AT_EPOCH": 87235, "BSTAR": 0.0033112622, "MEAN_MOTION_DOT": 0.0001794, "MEAN_MOTION_DDOT": 0}, "tle": {"line1": "1 35445U 93036AKP 25340.30922633  .00017940  00000+0  33113-2 0  9997", "line2": "2 35445  74.0371 312.2612 0143569  40.8351 320.3464 14.58941394872356"}}, "geometry": {"type": "Point", "coordinates": [160.77165839570702, -59.63967006037241]}}, {"type": "Feature", "properties": {"norad_id": 35446, "name": "COSMOS 2251 DEB", "group": "cosmos-2251-debris", "lat": 15.229365570044065, "lon": -25.928055232164937, "alt_km": 695.8311909580198, "timestamp": "2025-12-06T16:45:43.117734+00:00", "meta": {"OBJECT_NAME": "COSMOS 2251 DEB", "OBJECT_ID": "1993-036AKQ", "EPOCH": "2025-12-05T17:34:52.262112", "MEAN_MOTION": 14.54618421, "ECCENTRICITY": 0.00744002, "INCLINATION": 74.0466, "RA_OF_ASC_NODE": 331.4309, "ARG_OF_PERICENTER": 91.6694, "MEAN_ANOMALY": 269.2992, "EPHEMERIS_TYPE": 0, "CLASSIFICATION_TYPE": "U", "NORAD_CAT_ID": 35446, "ELEMENT_SET_NO": 999, "REV_AT_EPOCH": 87906, "BSTAR": 0.00018901942, "MEAN_MOTION_DOT": 8.08e-06, "MEAN_MOTION_DDOT": 0}, "tle": {"line1": "1 35446U 93036AKQ 25339.73254933  .00000808  00000+0  18902-3 0  9999", "line2": "2 35446  74.0466 331.4309 0074400  91.6694 269.2992 14.54618421879069"}}, "geometry": {"type": "Point", "coordinates": [-25.928055232164937, 15.229365570044065]}}, {"type": "Feature", "properties": {"norad_id": 35448, "name": "COSMOS 2251 DEB", "group": "cosmos-2251-debris", "lat": -59.88781100268405, "lon": -49.11398765059268, "alt_km": 712.4423491395601, "timestamp": "2025-12-06T16:45:43.117744+00:00", "meta": {"OBJECT_NAME": "COSMOS 2251 DEB", "OBJECT_ID": "1993-036AKS", "EPOCH": "2025-12-05T14:52:31.418112", "MEAN_MOTION": 14.54160371, "ECCENTRICITY": 0.00112149, "INCLINATION": 73.9027, "RA_OF_ASC_NODE": 103.0785, "ARG_OF_PERICENTER": 283.351, "MEAN_ANOMALY": 76.6401, "EPHEMERIS_TYPE": 0, "CLASSIFICATION_TYPE": "U", "NORAD_CAT_ID": 35448, "ELEMENT_SET_NO": 999, "REV_AT_EPOCH": 87231, "BSTAR": 0.0022626974, "MEAN_MOTION_DOT": 9.564e-05, "MEAN_MOTION_DDOT": 0}, "tle": {"line1": "1 35448U 93036AKS 25339.61980808  .00009564  00000+0  22627-2 0  9991", "line2": "2 35448  73.9027 103.0785 0011214 283.3510  76.6401 14.54160371872316"}}, "geometry": {"type": "Point", "coordinates": [-49.11398765059268, -59.88781100268405]}}, {"type": "Feature", "properties": {"norad_id": 35451, "name": "COSMOS 2251 DEB", "group": "cosmos-2251-debris", "lat": -49.706667995756405, "lon": 95.83472084763335, "alt_km": 452.76830412310755, "timestamp": "2025-12-06T16:45:43.117754+00:00", "meta": {"OBJECT_NAME": "COSMOS 2251 DEB", "OBJECT_ID": "1993-036AKV", "EPOCH": "2025-12-06T01:20:36.087936", "MEAN_MOTION": 15.34594831, "ECCENTRICITY": 0.00401334, "INCLINATION": 73.9315, "RA_OF_ASC_NODE": 117.0947, "ARG_OF_PERICENTER": 4.526, "MEAN_ANOMALY": 355.6298, "EPHEMERIS_TYPE": 0, "CLASSIFICATION_TYPE": "U", "NORAD_CAT_ID": 35451, "ELEMENT_SET_NO": 999, "REV_AT_EPOCH": 67303, "BSTAR": 0.0020844492, "MEAN_MOTION_DOT": 0.00072374, "MEAN_MOTION_DDOT": 0}, "tle": {"line1": "1 35451U 93036AKV 25340.05597324  .00072374  00000+0  20844-2 0  9990", "line2": "2 35451  73.9315 117.0947 0040133   4.5260 355.6298 15.34594831673035"}}, "geometry": {"type": "Point", "coordinates": [95.83472084763335, -49.706667995756405]}}, {"type": "Feature", "properties": {"norad_id": 35453, "name": "COSMOS 2251 DEB", "group": "cosmos-2251-debris", "lat": -63.62787237413607, "lon": -3.811232282786179, "alt_km": 799.3641177764011, "timestamp": "2025-12-06T16:45:43.117765+00:00", "meta": {"OBJECT_NAME": "COSMOS 2251 DEB", "OBJECT_ID": "1993-036AKX", "EPOCH": "2025-12-02T12:53:58.122528", "MEAN_MOTION": 14.3790654, "ECCENTRICITY": 0.00680216, "INCLINATION": 74.0102, "RA_OF_ASC_NODE": 39.1945, "ARG_OF_PERICENTER": 175.6131, "MEAN_ANOMALY": 184.5634, "EPHEMERIS_TYPE": 0, "CLASSIFICATION_TYPE": "U", "NORAD_CAT_ID": 35453, "ELEMENT_SET_NO": 999, "REV_AT_EPOCH": 86072, "BSTAR": 0.00098540606, "MEAN_MOTION_DOT": 3.03e-05, "MEAN_MOTION_DDOT": 0}, "tle": {"line1": "1 35453U 93036AKX 25336.53747827  .00003030  00000+0  98541-3 0  9998", "line2": "2 35453  74.0102  39.1945 0068021 175.6131 184.5634 14.37906540860721"}}, "geometry": {"type": "Point", "coordinates": [-3.811232282786179, -63.62787237413607]}}, {"type": "Feature", "properties": {"norad_id": 35455, "name": "COSMOS 2251 DEB", "group": "cosmos-2251-debris", "lat": -68.77832993453514, "lon": 173.6679670274266, "alt_km": 798.5631710728767, "timestamp": "2025-12-06T16:45:43.117775+00:00", "meta": {"OBJECT_NAME": "COSMOS 2251 DEB", "OBJECT_ID": "1993-036AKZ", "EPOCH": "2025-12-05T08:06:37.888128", "MEAN_MOTION": 14.49263122, "ECCENTRICITY": 0.0098804, "INCLINATION": 74.0283, "RA_OF_ASC_NODE": 308.6971, "ARG_OF_PERICENTER": 54.0721, "MEAN_ANOMALY": 306.9556, "EPHEMERIS_TYPE": 0, "CLASSIFICATION_TYPE": "U", "NORAD_CAT_ID": 35455, "ELEMENT_SET_NO": 999, "REV_AT_EPOCH": 86436, "BSTAR": 0.0027436802, "MEAN_MOTION_DOT": 0.00011124, "MEAN_MOTION_DDOT": 0}, "tle": {"line1": "1 35455U 93036AKZ 25339.33793852  .00011124  00000+0  27437-2 0  9998", "line2": "2 35455  74.0283 308.6971 0098804  54.0721 306.9556 14.49263122864365"}}, "geometry": {"type": "Point", "coordinates": [173.6679670274266, -68.77832993453514]}}, {"type": "Feature", "properties": {"norad_id": 35456, "name": "COSMOS 2251 DEB", "group": "cosmos-2251-debris", "lat": -2.721524316410747, "lon": -49.97789057265595, "alt_km": 708.7952031385421, "timestamp": "2025-12-06T16:45:43.117785+00:00", "meta": {"OBJECT_NAME": "COSMOS 2251 DEB", "OBJECT_ID": "1993-036ALA", "EPOCH": "2025-12-04T18:10:25.054752", "MEAN_MOTION": 14.69179998, "ECCENTRICITY": 0.00651966, "INCLINATION": 73.9491, "RA_OF_ASC_NODE": 133.0155, "ARG_OF_PERICENTER": 344.6308, "MEAN_ANOMALY": 15.288, "EPHEMERIS_TYPE": 0, "CLASSIFICATION_TYPE": "U", "NORAD_CAT_ID": 35456, "ELEMENT_SET_NO": 999, "REV_AT_EPOCH": 65758, "BSTAR": 0.003747315, "MEAN_MOTION_DOT": 0.00022831, "MEAN_MOTION_DDOT": 0}, "tle": {"line1": "1 35456U 93036ALA 25338.75723443  .00022831  00000+0  37473-2 0  9991", "line2": "2 35456  73.9491 133.0155 0065196 344.6308  15.2880 14.69179998657589"}}, "geometry": {"type": "Point", "coordinates": [-49.97789057265595, -2.721524316410747]}}]}